STARLINK-5606           
1 55767U 23028AC  26002.83335648  .00019789  00000+0  16621-2 0  9996
2 55767  70.0014  30.6888 0003047 267.8971 102.1921 14.98317121  5650
STARLINK-5584           
1 55769U 23028AE  26002.81063026  .00000774  00000+0  72673-4 0  9999
2 55769  70.0000  30.6179 0003065 269.0546  91.0262 14.98331654156661
STARLINK-5557           
1 55770U 23028AF  26002.80645460  .00000300  00000+0  32970-4 0  9999
2 55770  70.0002  30.6028 0003380 267.7008  92.3764 14.98333155156665
STARLINK-5591           
1 55771U 23028AG  26002.53106994  .00001705  00000+0  15063-3 0  9997
2 55771  70.0001  31.2466 0003225 270.6599  89.4191 14.98326987156626
STARLINK-5835           
1 55772U 23028AH  26002.78157890  .00000110  00000+0  17049-4 0  9992
2 55772  70.0005  30.5170 0002891 269.6970  90.3858 14.98327757156665
STARLINK-5833           
1 55773U 23028AJ  26002.48102894 -.00001612  00000+0 -12736-3 0  9991
2 55773  69.9999  31.4716 0003067 270.6258  89.4549 14.98308592156615
STARLINK-5812           
1 55774U 23028AK  26002.79393129  .00000823  00000+0  76763-4 0  9991
2 55774  70.0002  30.5591 0003603 267.3375  92.7372 14.98333271156662
STARLINK-5809           
1 55775U 23028AL  26002.45595726  .00000834  00000+0  77669-4 0  9990
2 55775  70.0002  31.3857 0002978 268.9139  91.1679 14.98333302156619
STARLINK-5814           
1 55777U 23028AN  26002.78141718  .00000105  00000+0  16587-4 0  9999
2 55777  70.0003  30.5165 0003469 267.4008  92.6754 14.98339391156669
STARLINK-5816           
1 55778U 23028AP  26002.77723714  .00000283  00000+0  31523-4 0  9995
2 55778  70.0003  30.5008 0003160 271.5019  88.5778 14.98330114156666
STARLINK-5817           
1 55779U 23028AQ  26002.41399625  .00002977  00000+0  25714-3 0  9993
2 55779  70.0004  11.3594 0003643 273.5551  86.5192 14.98341297157106
STARLINK-5819           
1 55780U 23028AR  26002.50601993  .00000358  00000+0  37758-4 0  9992
2 55780  69.9993  31.1593 0003142 271.4715  88.6084 14.98332697156627
STARLINK-5820           
1 55781U 23028AS  26002.78558156 -.00005918  00000+0 -48833-3 0  9999
2 55781  70.0007  30.5632 0002732 273.3814  86.7033 14.98350864156662
STARLINK-5826           
1 55782U 23028AT  26002.41000855 -.00000656  00000+0 -47179-4 0  9995
2 55782  70.0008  11.7527 0002928 268.2242  91.8581 14.98338730157094
STARLINK-5825           
1 55783U 23028AU  26002.40984521  .00000907  00000+0  83824-4 0  9990
2 55783  70.0007  11.7505 0002915 267.7224  92.3602 14.98330902157093
STARLINK-5797           
1 55784U 23028AV  26002.66668981 -.00048716  00000+0 -41008-2 0  9996
2 55784  70.0009  11.0022 0003023 271.5328 122.7042 14.98355017  5678
