[{"OBJECT_NAME":"STARLINK-5606","OBJECT_ID":"2023-028AC","EPOCH":"2026-01-02T20:00:01.999872","MEAN_MOTION":14.98317121,"ECCENTRICITY":0.0003047,"INCLINATION":70.0014,"RA_OF_ASC_NODE":30.6888,"ARG_OF_PERICENTER":267.8971,"MEAN_ANOMALY":102.1921,"EPHEMERIS_TYPE":0,"CLASSIFICATION_TYPE":"U","NORAD_CAT_ID":55767,"ELEMENT_SET_NO":999,"REV_AT_EPOCH":565,"BSTAR":0.0016621,"MEAN_MOTION_DOT":0.00019789,"MEAN_MOTION_DDOT":0},{"OBJECT_NAME":"STARLINK-5584","OBJECT_ID":"2023-028AE","EPOCH":"2026-01-02T19:27:18.454464","MEAN_MOTION":14.98331654,"ECCENTRICITY":0.0003065,"INCLINATION":70,"RA_OF_ASC_NODE":30.6179,"ARG_OF_PERICENTER":269.0546,"MEAN_ANOMALY":91.0262,"EPHEMERIS_TYPE":0,"CLASSIFICATION_TYPE":"U","NORAD_CAT_ID":55769,"ELEMENT_SET_NO":999,"REV_AT_EPOCH":15666,"BSTAR":7.2673e-5,"MEAN_MOTION_DOT":7.74e-6,"MEAN_MOTION_DDOT":0},{"OBJECT_NAME":"STARLINK-5557","OBJECT_ID":"2023-028AF","EPOCH":"2026-01-02T19:21:17.677440","MEAN_MOTION":14.98333155,"ECCENTRICITY":0.000338,"INCLINATION":70.0002,"RA_OF_ASC_NODE":30.6028,"ARG_OF_PERICENTER":267.7008,"MEAN_ANOMALY":92.3764,"EPHEMERIS_TYPE":0,"CLASSIFICATION_TYPE":"U","NORAD_CAT_ID":55770,"ELEMENT_SET_NO":999,"REV_AT_EPOCH":15666,"BSTAR":3.297e-5,"MEAN_MOTION_DOT":3.0e-6,"MEAN_MOTION_DDOT":0},{"OBJECT_NAME":"STARLINK-5591","OBJECT_ID":"2023-028AG","EPOCH":"2026-01-02T12:44:44.442816","MEAN_MOTION":14.98326987,"ECCENTRICITY":0.00032251,"INCLINATION":70.0001,"RA_OF_ASC_NODE":31.2466,"ARG_OF_PERICENTER":270.6599,"MEAN_ANOMALY":89.4191,"EPHEMERIS_TYPE":0,"CLASSIFICATION_TYPE":"U","NORAD_CAT_ID":55771,"ELEMENT_SET_NO":999,"REV_AT_EPOCH":15662,"BSTAR":0.00015063033,"MEAN_MOTION_DOT":1.705e-5,"MEAN_MOTION_DDOT":0},{"OBJECT_NAME":"STARLINK-5835","OBJECT_ID":"2023-028AH","EPOCH":"2026-01-02T18:45:28.416960","MEAN_MOTION":14.98327757,"ECCENTRICITY":0.0002891,"INCLINATION":70.0005,"RA_OF_ASC_NODE":30.517,"ARG_OF_PERICENTER":269.697,"MEAN_ANOMALY":90.3858,"EPHEMERIS_TYPE":0,"CLASSIFICATION_TYPE":"U","NORAD_CAT_ID":55772,"ELEMENT_SET_NO":999,"REV_AT_EPOCH":15666,"BSTAR":1.7049e-5,"MEAN_MOTION_DOT":1.1e-6,"MEAN_MOTION_DDOT":0},{"OBJECT_NAME":"STARLINK-5833","OBJECT_ID":"2023-028AJ","EPOCH":"2026-01-02T11:32:40.900416","MEAN_MOTION":14.98308592,"ECCENTRICITY":0.00030674,"INCLINATION":69.9999,"RA_OF_ASC_NODE":31.4716,"ARG_OF_PERICENTER":270.6258,"MEAN_ANOMALY":89.4549,"EPHEMERIS_TYPE":0,"CLASSIFICATION_TYPE":"U","NORAD_CAT_ID":55773,"ELEMENT_SET_NO":999,"REV_AT_EPOCH":15661,"BSTAR":-0.00012736458,"MEAN_MOTION_DOT":-1.612e-5,"MEAN_MOTION_DDOT":0},{"OBJECT_NAME":"STARLINK-5812","OBJECT_ID":"2023-028AK","EPOCH":"2026-01-02T19:03:15.663456","MEAN_MOTION":14.98333271,"ECCENTRICITY":0.0003603,"INCLINATION":70.0002,"RA_OF_ASC_NODE":30.5591,"ARG_OF_PERICENTER":267.3375,"MEAN_ANOMALY":92.7372,"EPHEMERIS_TYPE":0,"CLASSIFICATION_TYPE":"U","NORAD_CAT_ID":55774,"ELEMENT_SET_NO":999,"REV_AT_EPOCH":15666,"BSTAR":7.6763e-5,"MEAN_MOTION_DOT":8.23e-6,"MEAN_MOTION_DDOT":0},{"OBJECT_NAME":"STARLINK-5809","OBJECT_ID":"2023-028AL","EPOCH":"2026-01-02T10:56:34.707264","MEAN_MOTION":14.98333302,"ECCENTRICITY":0.00029787,"INCLINATION":70.0002,"RA_OF_ASC_NODE":31.3857,"ARG_OF_PERICENTER":268.9139,"MEAN_ANOMALY":91.1679,"EPHEMERIS_TYPE":0,"CLASSIFICATION_TYPE":"U","NORAD_CAT_ID":55775,"ELEMENT_SET_NO":999,"REV_AT_EPOCH":15661,"BSTAR":7.7668687e-5,"MEAN_MOTION_DOT":8.34e-6,"MEAN_MOTION_DDOT":0},{"OBJECT_NAME":"STARLINK-5814","OBJECT_ID":"2023-028AN","EPOCH":"2026-01-02T18:45:14.444352","MEAN_MOTION":14.98339391,"ECCENTRICITY":0.0003469,"INCLINATION":70.0003,"RA_OF_ASC_NODE":30.5165,"ARG_OF_PERICENTER":267.4008,"MEAN_ANOMALY":92.6754,"EPHEMERIS_TYPE":0,"CLASSIFICATION_TYPE":"U","NORAD_CAT_ID":55777,"ELEMENT_SET_NO":999,"REV_AT_EPOCH":15666,"BSTAR":1.6587e-5,"MEAN_MOTION_DOT":1.05e-6,"MEAN_MOTION_DDOT":0},{"OBJECT_NAME":"STARLINK-5816","OBJECT_ID":"2023-028AP","EPOCH":"2026-01-02T18:39:13.288896","MEAN_MOTION":14.98330114,"ECCENTRICITY":0.000316,"INCLINATION":70.0003,"RA_OF_ASC_NODE":30.5008,"ARG_OF_PERICENTER":271.5019,"MEAN_ANOMALY":88.5778,"EPHEMERIS_TYPE":0,"CLASSIFICATION_TYPE":"U","NORAD_CAT_ID":55778,"ELEMENT_SET_NO":999,"REV_AT_EPOCH":15666,"BSTAR":3.1523e-5,"MEAN_MOTION_DOT":2.83e-6,"MEAN_MOTION_DDOT":0},{"OBJECT_NAME":"STARLINK-5817","OBJECT_ID":"2023-028AQ","EPOCH":"2026-01-02T09:56:09.276000","MEAN_MOTION":14.98341297,"ECCENTRICITY":0.00036433,"INCLINATION":70.0004,"RA_OF_ASC_NODE":11.3594,"ARG_OF_PERICENTER":273.5551,"MEAN_ANOMALY":86.5192,"EPHEMERIS_TYPE":0,"CLASSIFICATION_TYPE":"U","NORAD_CAT_ID":55779,"ELEMENT_SET_NO":999,"REV_AT_EPOCH":15710,"BSTAR":0.00025713881,"MEAN_MOTION_DOT":2.977e-5,"MEAN_MOTION_DDOT":0},{"OBJECT_NAME":"STARLINK-5819","OBJECT_ID":"2023-028AR","EPOCH":"2026-01-02T12:08:40.121952","MEAN_MOTION":14.98332697,"ECCENTRICITY":0.00031429,"INCLINATION":69.9993,"RA_OF_ASC_NODE":31.1593,"ARG_OF_PERICENTER":271.4715,"MEAN_ANOMALY":88.6084,"EPHEMERIS_TYPE":0,"CLASSIFICATION_TYPE":"U","NORAD_CAT_ID":55780,"ELEMENT_SET_NO":999,"REV_AT_EPOCH":15662,"BSTAR":3.7757662e-5,"MEAN_MOTION_DOT":3.58e-6,"MEAN_MOTION_DDOT":0},{"OBJECT_NAME":"STARLINK-5820","OBJECT_ID":"2023-028AS","EPOCH":"2026-01-02T18:51:14.246784","MEAN_MOTION":14.98350864,"ECCENTRICITY":0.0002732,"INCLINATION":70.0007,"RA_OF_ASC_NODE":30.5632,"ARG_OF_PERICENTER":273.3814,"MEAN_ANOMALY":86.7033,"EPHEMERIS_TYPE":0,"CLASSIFICATION_TYPE":"U","NORAD_CAT_ID":55781,"ELEMENT_SET_NO":999,"REV_AT_EPOCH":15666,"BSTAR":-0.00048833,"MEAN_MOTION_DOT":-5.918e-5,"MEAN_MOTION_DDOT":0},{"OBJECT_NAME":"STARLINK-5826","OBJECT_ID":"2023-028AT","EPOCH":"2026-01-02T09:50:24.738720","MEAN_MOTION":14.9833873,"ECCENTRICITY":0.00029288,"INCLINATION":70.0008,"RA_OF_ASC_NODE":11.7527,"ARG_OF_PERICENTER":268.2242,"MEAN_ANOMALY":91.8581,"EPHEMERIS_TYPE":0,"CLASSIFICATION_TYPE":"U","NORAD_CAT_ID":55782,"ELEMENT_SET_NO":999,"REV_AT_EPOCH":15709,"BSTAR":-4.7179476e-5,"MEAN_MOTION_DOT":-6.56e-6,"MEAN_MOTION_DDOT":0},{"OBJECT_NAME":"STARLINK-5825","OBJECT_ID":"2023-028AU","EPOCH":"2026-01-02T09:50:10.626144","MEAN_MOTION":14.98330902,"ECCENTRICITY":0.00029151,"INCLINATION":70.0007,"RA_OF_ASC_NODE":11.7505,"ARG_OF_PERICENTER":267.7224,"MEAN_ANOMALY":92.3602,"EPHEMERIS_TYPE":0,"CLASSIFICATION_TYPE":"U","NORAD_CAT_ID":55783,"ELEMENT_SET_NO":999,"REV_AT_EPOCH":15709,"BSTAR":8.3823894e-5,"MEAN_MOTION_DOT":9.07e-6,"MEAN_MOTION_DDOT":0},{"OBJECT_NAME":"STARLINK-5797","OBJECT_ID":"2023-028AV","EPOCH":"2026-01-02T16:00:01.999584","MEAN_MOTION":14.98355017,"ECCENTRICITY":0.00030236,"INCLINATION":70.0009,"RA_OF_ASC_NODE":11.0022,"ARG_OF_PERICENTER":271.5328,"MEAN_ANOMALY":122.7042,"EPHEMERIS_TYPE":0,"CLASSIFICATION_TYPE":"U","NORAD_CAT_ID":55784,"ELEMENT_SET_NO":999,"REV_AT_EPOCH":567,"BSTAR":-0.0041008167,"MEAN_MOTION_DOT":-0.00048716,"MEAN_MOTION_DDOT":0}]
